{"type": "FeatureCollection", "features": [ {"type": "Feature", "properties": {"norad_id": 30242, "name": "FENGYUN 1C DEB", "group": "fengyun-1c-debris", "lat": -73.6086151841399, "lon": 158.29124172064, "alt_km": 848.9490114957207, "timestamp": "2025-12-01T03:58:50.089029+00:00", "meta": {"OBJECT_NAME": "FENGYUN 1C DEB", "OBJECT_ID": "1999-025XB", "EPOCH": "2025-11-30T20:49:03.628704", "MEAN_MOTION": 14.17593646, "ECCENTRICITY": 0.0011495, "INCLINATION": 98.6849, "RA_OF_ASC_NODE": 9.3066, "ARG_OF_PERICENTER": 86.9807, "MEAN_ANOMALY": 86.7562, "EPHEMERIS_TYPE": 0, "CLASSIFICATION_TYPE": "U", "NORAD_CAT_ID": 30242, "ELEMENT_SET_NO": 999, "REV_AT_EPOCH": 97258, "BSTAR": 0.00060306, "MEAN_MOTION_DOT": 1.183e-05, "MEAN_MOTION_DDOT": 0, "GROUP": "fengyun-1c-debris"}, "tle": {"line1": "1 30242U 99025XB  25334.86740311  .00001183  00000+0  60306-3 0  9993", "line2": "2 30242  98.6849   9.3066 0011495  86.9807  86.7562 14.17593646972580"}}, "geometry": {"type": "Point", "coordinates": [158.29124172064, -73.6086151841399]}}, {"type": "Feature", "properties": {"norad_id": 30243, "name": "FENGYUN 1C DEB", "group": "fengyun-1c-debris", "lat": 8.252667278366273, "lon": 168.19164766393305, "alt_km": 842.3503595175216, "timestamp": "2025-12-01T03:58:50.089040+00:00", "meta": {"OBJECT_NAME": "FENGYUN 1C DEB", "OBJECT_ID": "1999-025XC", "EPOCH": "2025-11-30T12:35:30.878016", "MEAN_MOTION": 14.12994632, "ECCENTRICITY": 0.00127247, "INCLINATION": 98.6939, "RA_OF_ASC_NODE": 346.2974, "ARG_OF_PERICENTER": 151.8302, "MEAN_ANOMALY": 359.8619, "EPHEMERIS_TYPE": 0, "CLASSIFICATION_TYPE": "U", "NORAD_CAT_ID": 30243, "ELEMENT_SET_NO": 999, "REV_AT_EPOCH": 97106, "BSTAR": 0.00039309012, "MEAN_MOTION_DOT": 6.91e-06, "MEAN_MOTION_DDOT": 0, "GROUP": "fengyun-1c-debris"}, "tle": {"line1": "1 30243U 99025XC  25334.52466294  .00000691  00000+0  39309-3 0  9994", "line2": "2 30243  98.6939 346.2974 0012724 151.8302 359.8619 14.12994632971064"}}, "geometry": {"type": "Point", "coordinates": [168.19164766393305, 8.252667278366273]}}, {"type": "Feature", "properties": {"norad_id": 30244, "name": "FENGYUN 1C DEB", "group": "fengyun-1c-debris", "lat": -74.18956948356839, "lon": -100.80396839361225, "alt_km": 846.4912037608892, "timestamp": "2025-12-01T03:58:50.089050+00:00", "meta": {"OBJECT_NAME": "FENGYUN 1C DEB", "OBJECT_ID": "1999-025XD", "EPOCH": "2025-11-30T15:02:32.070912", "MEAN_MOTION": 14.14985524, "ECCENTRICITY": 0.0010101, "INCLINATION": 99.1434, "RA_OF_ASC_NODE": 223.9805, "ARG_OF_PERICENTER": 349.0272, "MEAN_ANOMALY": 69.4408, "EPHEMERIS_TYPE": 0, "CLASSIFICATION_TYPE": "U", "NORAD_CAT_ID": 30244, "ELEMENT_SET_NO": 999, "REV_AT_EPOCH": 97175, "BSTAR": 0.0004195, "MEAN_MOTION_DOT": 7.65e-06, "MEAN_MOTION_DDOT": 0, "GROUP": "fengyun-1c-debris"}, "tle": {"line1": "1 30244U 99025XD  25334.62676008  .00000765  00000+0  41950-3 0  9999", "line2": "2 30244  99.1434 223.9805 0010101 349.0272  69.4408 14.14985524971757"}}, "geometry": {"type": "Point", "coordinates": [-100.80396839361225, -74.18956948356839]}}, {"type": "Feature", "properties": {"norad_id": 30245, "name": "FENGYUN 1C DEB", "group": "fengyun-1c-debris", "lat": 59.39654321271465, "lon": 158.81597223884927, "alt_km": 1097.1569016621615, "timestamp": "2025-12-01T03:58:50.089060+00:00", "meta": {"OBJECT_NAME": "FENGYUN 1C DEB", "OBJECT_ID": "1999-025XE", "EPOCH": "2025-11-30T09:58:37.724160", "MEAN_MOTION": 13.79015678, "ECCENTRICITY": 0.01935779, "INCLINATION": 98.8883, "RA_OF_ASC_NODE": 322.7711, "ARG_OF_PERICENTER": 284.1332, "MEAN_ANOMALY": 73.838, "EPHEMERIS_TYPE": 0, "CLASSIFICATION_TYPE": "U", "NORAD_CAT_ID": 30245, "ELEMENT_SET_NO": 999, "REV_AT_EPOCH": 94524, "BSTAR": 0.0013034817, "MEAN_MOTION_DOT": 1.489e-05, "MEAN_MOTION_DDOT": 0, "GROUP": "fengyun-1c-debris"}, "tle": {"line1": "1 30245U 99025XE  25334.41571440  .00001489  00000+0  13035-2 0  9997", "line2": "2 30245  98.8883 322.7711 0193577 284.1332  73.8380 13.79015678945248"}}, "geometry": {"type": "Point", "coordinates": [158.81597223884927, 59.39654321271465]}}, {"type": "Feature", "properties": {"norad_id": 30246, "name": "FENGYUN 1C DEB", "group": "fengyun-1c-debris", "lat": 9.850346787982708, "lon": -57.95342617908993, "alt_km": 908.2278154393534, "timestamp": "2025-12-01T03:58:50.089071+00:00", "meta": {"OBJECT_NAME": "FENGYUN 1C DEB", "OBJECT_ID": "1999-025XF", "EPOCH": "2025-11-30T16:28:05.609856", "MEAN_MOTION": 13.37010171, "ECCENTRICITY": 0.0370802, "INCLINATION": 98.6728, "RA_OF_ASC_NODE": 120.1184, "ARG_OF_PERICENTER": 129.9424, "MEAN_ANOMALY": 249.6249, "EPHEMERIS_TYPE": 0, "CLASSIFICATION_TYPE": "U", "NORAD_CAT_ID": 30246, "ELEMENT_SET_NO": 999, "REV_AT_EPOCH": 91979, "BSTAR": 0.00033228, "MEAN_MOTION_DOT": 2.24e-06, "MEAN_MOTION_DDOT": 0, "GROUP": "fengyun-1c-debris"}, "tle": {"line1": "1 30246U 99025XF  25334.68617604  .00000224  00000+0  33228-3 0  9993", "line2": "2 30246  98.6728 120.1184 0370802 129.9424 249.6249 13.37010171919790"}}, "geometry": {"type": "Point", "coordinates": [-57.95342617908993, 9.850346787982708]}}, {"type": "Feature", "properties": {"norad_id": 30247, "name": "FENGYUN 1C DEB", "group": "fengyun-1c-debris", "lat": -25.085545910770097, "lon": 58.44540332878038, "alt_km": 843.0395140570745, "timestamp": "2025-12-01T03:58:50.089081+00:00", "meta": {"OBJECT_NAME": "FENGYUN 1C DEB", "OBJECT_ID": "1999-025XG", "EPOCH": "2025-11-30T17:17:34.326816", "MEAN_MOTION": 14.58416427, "ECCENTRICITY": 0.0196894, "INCLINATION": 98.2761, "RA_OF_ASC_NODE": 241.9088, "ARG_OF_PERICENTER": 29.0624, "MEAN_ANOMALY": 359.3966, "EPHEMERIS_TYPE": 0, "CLASSIFICATION_TYPE": "U", "NORAD_CAT_ID": 30247, "ELEMENT_SET_NO": 999, "REV_AT_EPOCH": 97107, "BSTAR": 0.0031934, "MEAN_MOTION_DOT": 0.00019367, "MEAN_MOTION_DDOT": 0, "GROUP": "fengyun-1c-debris"}, "tle": {"line1": "1 30247U 99025XG  25334.72053619  .00019367  00000+0  31934-2 0  9998", "line2": "2 30247  98.2761 241.9088 0196894  29.0624 359.3966 14.58416427971070"}}, "geometry": {"type": "Point", "coordinates": [58.44540332878038, -25.085545910770097]}}, {"type": "Feature", "properties": {"norad_id": 30248, "name": "FENGYUN 1C DEB", "group": "fengyun-1c-debris", "lat": -56.64221415080697, "lon": -35.90358923886915, "alt_km": 691.4946832204578, "timestamp": "2025-12-01T03:58:50.089116+00:00", "meta": {"OBJECT_NAME": "FENGYUN 1C DEB", "OBJECT_ID": "1999-025XH", "EPOCH": "2025-11-29T11:22:40.197504", "MEAN_MOTION": 14.58415573, "ECCENTRICITY": 0.00297092, "INCLINATION": 99.1026, "RA_OF_ASC_NODE": 156.3408, "ARG_OF_PERICENTER": 193.1903, "MEAN_ANOMALY": 166.852, "EPHEMERIS_TYPE": 0, "CLASSIFICATION_TYPE": "U", "NORAD_CAT_ID": 30248, "ELEMENT_SET_NO": 999, "REV_AT_EPOCH": 97235, "BSTAR": 0.0036033695, "MEAN_MOTION_DOT": 0.0001679, "MEAN_MOTION_DDOT": 0, "GROUP": "fengyun-1c-debris"}, "tle": {"line1": "1 30248U 99025XH  25333.47407636  .00016790  00000+0  36034-2 0  9995", "line2": "2 30248  99.1026 156.3408 0029709 193.1903 166.8520 14.58415573972353"}}, "geometry": {"type": "Point", "coordinates": [-35.90358923886915, -56.64221415080697]}}, {"type": "Feature", "properties": {"norad_id": 30249, "name": "FENGYUN 1C DEB", "group": "fengyun-1c-debris", "lat": 5.411305631827433, "lon": 137.85223343339752, "alt_km": 699.5140211884154, "timestamp": "2025-12-01T03:58:50.089128+00:00", "meta": {"OBJECT_NAME": "FENGYUN 1C DEB", "OBJECT_ID": "1999-025XJ", "EPOCH": "2025-11-30T09:58:26.751360", "MEAN_MOTION": 14.57056422, "ECCENTRICITY": 0.00263854, "INCLINATION": 98.9602, "RA_OF_ASC_NODE": 137.9022, "ARG_OF_PERICENTER": 81.4843, "MEAN_ANOMALY": 311.1745, "EPHEMERIS_TYPE": 0, "CLASSIFICATION_TYPE": "U", "NORAD_CAT_ID": 30249, "ELEMENT_SET_NO": 999, "REV_AT_EPOCH": 97384, "BSTAR": 0.0039422384, "MEAN_MOTION_DOT": 0.00017821, "MEAN_MOTION_DDOT": 0, "GROUP": "fengyun-1c-debris"}, "tle": {"line1": "1 30249U 99025XJ  25334.41558740  .00017821  00000+0  39422-2 0  9994", "line2": "2 30249  98.9602 137.9022 0026385  81.4843 311.1745 14.57056422973849"}}, "geometry": {"type": "Point", "coordinates": [137.85223343339752, 5.411305631827433]}}, {"type": "Feature", "properties": {"norad_id": 30250, "name": "FENGYUN 1C DEB", "group": "fengyun-1c-debris", "lat": -63.742829528409274, "lon": 129.38183385622952, "alt_km": 846.3492869662805, "timestamp": "2025-12-01T03:58:50.089140+00:00", "meta": {"OBJECT_NAME": "FENGYUN 1C DEB", "OBJECT_ID": "1999-025XK", "EPOCH": "2025-11-30T13:42:00.804096", "MEAN_MOTION": 14.01600608, "ECCENTRICITY": 0.0068759, "INCLINATION": 98.7528, "RA_OF_ASC_NODE": 327.0093, "ARG_OF_PERICENTER": 257.7224, "MEAN_ANOMALY": 226.8772, "EPHEMERIS_TYPE": 0, "CLASSIFICATION_TYPE": "U", "NORAD_CAT_ID": 30250, "ELEMENT_SET_NO": 999, "REV_AT_EPOCH": 96321, "BSTAR": 0.00055952, "MEAN_MOTION_DOT": 8.22e-06, "MEAN_MOTION_DDOT": 0, "GROUP": "fengyun-1c-debris"}, "tle": {"line1": "1 30250U 99025XK  25334.57084264  .00000822  00000+0  55952-3 0  9998", "line2": "2 30250  98.7528 327.0093 0068759 257.7224 226.8772 14.01600608963210"}}, "geometry": {"type": "Point", "coordinates": [129.38183385622952, -63.742829528409274]}}]}